QIANFAN-49              
1 62250U 24232P   25288.92181534  .00000157  00000+0  22429-3 0  9990
2 62250  89.0024  47.0562 0013946   9.6193 350.5222 13.50979100 60038
QIANFAN-50              
1 62251U 24232Q   25288.94651274  .00000165  00000+0  23639-3 0  9999
2 62251  89.0024  47.0587 0015629  10.1078 350.0384 13.50979648 60069
QIANFAN-51              
1 62252U 24232R   25288.93005972  .00000149  00000+0  21256-3 0  9992
2 62252  89.0023  47.0578 0013269  15.1479 345.0067 13.50976485 60054
QIANFAN-52              
1 62253U 24232S   25288.95881546  .00000170  00000+0  24502-3 0  9995
2 62253  89.0015  46.9307 0015012   6.2076 353.9259 13.50979065 60144
QIANFAN-53              
1 62254U 24232T   25288.93833162  .00000154  00000+0  21959-3 0  9990
2 62254  89.0027  47.0329 0013939   7.8907 352.2461 13.50974756 60105
QIANFAN-54              
1 62255U 24232U   25288.90536397  .00000148  00000+0  21138-3 0  9990
2 62255  89.0018  46.7197 0003373  70.5372 289.6143 13.50976878 91605
QIANFAN-55              
1 62785U 25016A   25288.93144241  .00000076  00000+0  99145-4 0  9999
2 62785  88.9740 109.1811 0018079 150.6366 209.5805 13.50967646 39388
QIANFAN-56              
1 62786U 25016B   25288.94790527  .00000098  00000+0  13365-3 0  9998
2 62786  88.9713 109.0315 0016673 152.4823 207.7215 13.50975988 39432
